O3B MPOWER F1           
1 54755U 22174A   23194.59235992 -.00000024  00000+0  00000+0 0  9990
2 54755   0.0383   9.4497 0002775 182.8189 282.2860  5.00112083 11834
